{"fetched_at":"2026-07-24T07:06:55.729Z","source":"https://celestrak.org/NORAD/elements/gp.php?NAME=TIGER&FORMAT=JSON","constellation":"oq-technology","records":[{"OBJECT_NAME":"TIGER-8","OBJECT_ID":"2024-043Y","EPOCH":"2026-07-23T19:29:21.465600","CLASSIFICATION_TYPE":"U","MEAN_MOTION":15.4528785,"ECCENTRICITY":0.0008755,"INCLINATION":97.5577,"RA_OF_ASC_NODE":354.9081,"ARG_OF_PERICENTER":77.2365,"MEAN_ANOMALY":282.9861,"EPHEMERIS_TYPE":0,"NORAD_CAT_ID":59120,"ELEMENT_SET_NO":999,"REV_AT_EPOCH":13344,"BSTAR":0.00019534,"MEAN_MOTION_DOT":0.00009219,"MEAN_MOTION_DDOT":0},{"OBJECT_NAME":"TIGER-7","OBJECT_ID":"2024-043AV","EPOCH":"2026-07-23T08:54:06.628320","CLASSIFICATION_TYPE":"U","MEAN_MOTION":15.4948744,"ECCENTRICITY":0.0006489,"INCLINATION":97.551,"RA_OF_ASC_NODE":357.0034,"ARG_OF_PERICENTER":53.5854,"MEAN_ANOMALY":306.5995,"EPHEMERIS_TYPE":0,"NORAD_CAT_ID":59141,"ELEMENT_SET_NO":999,"REV_AT_EPOCH":13357,"BSTAR":0.0002196,"MEAN_MOTION_DOT":0.00012,"MEAN_MOTION_DDOT":0}]}
