TIGER-8                 
1 59120U 24043Y   26204.81205400  .00009219  00000+0  19534-3 0  9999
2 59120  97.5577 354.9081 0008755  77.2365 282.9861 15.45287850133440
TIGER-7                 
1 59141U 24043AV  26204.37091005  .00012000  00000+0  21960-3 0  9995
2 59141  97.5510 357.0034 0006489  53.5854 306.5995 15.49487440133570
